{"fetched_at":"2026-07-16T17:46:08.983Z","source":"https://celestrak.org/NORAD/elements/gp.php?GROUP=qianfan&FORMAT=JSON","constellation":"qianfan","records":[{"OBJECT_NAME":"QIANFAN-177","OBJECT_ID":"2026-124N","EPOCH":"2026-07-16T06:40:20.286048","CLASSIFICATION_TYPE":"U","MEAN_MOTION":13.96595357,"ECCENTRICITY":0.00080889,"INCLINATION":88.9997,"RA_OF_ASC_NODE":358.7468,"ARG_OF_PERICENTER":61.6879,"MEAN_ANOMALY":298.5113,"EPHEMERIS_TYPE":0,"NORAD_CAT_ID":69394,"ELEMENT_SET_NO":999,"REV_AT_EPOCH":593,"BSTAR":-0.000003397289,"MEAN_MOTION_DOT":9e-8,"MEAN_MOTION_DDOT":0},{"OBJECT_NAME":"QIANFAN-178","OBJECT_ID":"2026-124P","EPOCH":"2026-07-16T04:46:42.185568","CLASSIFICATION_TYPE":"U","MEAN_MOTION":13.99716163,"ECCENTRICITY":0.00069317,"INCLINATION":88.9993,"RA_OF_ASC_NODE":358.7532,"ARG_OF_PERICENTER":68.3799,"MEAN_ANOMALY":291.8118,"EPHEMERIS_TYPE":0,"NORAD_CAT_ID":69395,"ELEMENT_SET_NO":999,"REV_AT_EPOCH":592,"BSTAR":-0.000022391882,"MEAN_MOTION_DOT":-1.9e-7,"MEAN_MOTION_DDOT":0},{"OBJECT_NAME":"QIANFAN-179","OBJECT_ID":"2026-124Q","EPOCH":"2026-07-16T06:08:47.849568","CLASSIFICATION_TYPE":"U","MEAN_MOTION":13.98797878,"ECCENTRICITY":0.00066724,"INCLINATION":88.9998,"RA_OF_ASC_NODE":358.7441,"ARG_OF_PERICENTER":66.5052,"MEAN_ANOMALY":293.6827,"EPHEMERIS_TYPE":0,"NORAD_CAT_ID":69396,"ELEMENT_SET_NO":999,"REV_AT_EPOCH":593,"BSTAR":0.000003002372,"MEAN_MOTION_DOT":1.8e-7,"MEAN_MOTION_DDOT":0},{"OBJECT_NAME":"QIANFAN-180","OBJECT_ID":"2026-124R","EPOCH":"2026-07-16T06:14:22.557120","CLASSIFICATION_TYPE":"U","MEAN_MOTION":13.97121189,"ECCENTRICITY":0.00070497,"INCLINATION":88.9999,"RA_OF_ASC_NODE":358.7443,"ARG_OF_PERICENTER":64.8409,"MEAN_ANOMALY":295.3499,"EPHEMERIS_TYPE":0,"NORAD_CAT_ID":69397,"ELEMENT_SET_NO":999,"REV_AT_EPOCH":593,"BSTAR":5.3121e-7,"MEAN_MOTION_DOT":1.4e-7,"MEAN_MOTION_DDOT":0},{"OBJECT_NAME":"QIANFAN-181","OBJECT_ID":"2026-124S","EPOCH":"2026-07-16T05:23:58.930368","CLASSIFICATION_TYPE":"U","MEAN_MOTION":13.88015574,"ECCENTRICITY":0.000572,"INCLINATION":89.0001,"RA_OF_ASC_NODE":358.7945,"ARG_OF_PERICENTER":54.1029,"MEAN_ANOMALY":306.0673,"EPHEMERIS_TYPE":0,"NORAD_CAT_ID":69398,"ELEMENT_SET_NO":999,"REV_AT_EPOCH":590,"BSTAR":0.000006648463,"MEAN_MOTION_DOT":2.1e-7,"MEAN_MOTION_DDOT":0},{"OBJECT_NAME":"QIANFAN-182","OBJECT_ID":"2026-124T","EPOCH":"2026-07-16T04:03:46.040832","CLASSIFICATION_TYPE":"U","MEAN_MOTION":13.90165092,"ECCENTRICITY":0.00072365,"INCLINATION":88.9993,"RA_OF_ASC_NODE":358.787,"ARG_OF_PERICENTER":67.8975,"MEAN_ANOMALY":292.2966,"EPHEMERIS_TYPE":0,"NORAD_CAT_ID":69399,"ELEMENT_SET_NO":999,"REV_AT_EPOCH":589,"BSTAR":0.000007116031,"MEAN_MOTION_DOT":2.2e-7,"MEAN_MOTION_DDOT":0},{"OBJECT_NAME":"QIANFAN-183","OBJECT_ID":"2026-125A","EPOCH":"2026-07-15T21:42:38.552832","CLASSIFICATION_TYPE":"U","MEAN_MOTION":13.93228802,"ECCENTRICITY":0.00196565,"INCLINATION":88.9936,"RA_OF_ASC_NODE":277.2224,"ARG_OF_PERICENTER":84.2218,"MEAN_ANOMALY":276.1198,"EPHEMERIS_TYPE":0,"NORAD_CAT_ID":69401,"ELEMENT_SET_NO":999,"REV_AT_EPOCH":575,"BSTAR":-1.6801512,"MEAN_MOTION_DOT":-0.02040286,"MEAN_MOTION_DDOT":0},{"OBJECT_NAME":"QIANFAN-184","OBJECT_ID":"2026-125B","EPOCH":"2026-07-16T00:55:54.663168","CLASSIFICATION_TYPE":"U","MEAN_MOTION":13.90731966,"ECCENTRICITY":0.00157672,"INCLINATION":88.9945,"RA_OF_ASC_NODE":277.2067,"ARG_OF_PERICENTER":87.5099,"MEAN_ANOMALY":272.7879,"EPHEMERIS_TYPE":0,"NORAD_CAT_ID":69402,"ELEMENT_SET_NO":999,"REV_AT_EPOCH":577,"BSTAR":-1.7177311,"MEAN_MOTION_DOT":-0.01999442,"MEAN_MOTION_DDOT":0},{"OBJECT_NAME":"QIANFAN-185","OBJECT_ID":"2026-125C","EPOCH":"2026-07-16T04:08:38.295744","CLASSIFICATION_TYPE":"U","MEAN_MOTION":14.04121446,"ECCENTRICITY":0.00181875,"INCLINATION":88.9947,"RA_OF_ASC_NODE":277.1889,"ARG_OF_PERICENTER":79.4943,"MEAN_ANOMALY":280.8286,"EPHEMERIS_TYPE":0,"NORAD_CAT_ID":69403,"ELEMENT_SET_NO":999,"REV_AT_EPOCH":579,"BSTAR":0.000001478783,"MEAN_MOTION_DOT":1.6e-7,"MEAN_MOTION_DDOT":0},{"OBJECT_NAME":"QIANFAN-186","OBJECT_ID":"2026-125D","EPOCH":"2026-07-16T05:47:48.848640","CLASSIFICATION_TYPE":"U","MEAN_MOTION":13.92938099,"ECCENTRICITY":0.00199864,"INCLINATION":88.9952,"RA_OF_ASC_NODE":277.1788,"ARG_OF_PERICENTER":80.2503,"MEAN_ANOMALY":280.0928,"EPHEMERIS_TYPE":0,"NORAD_CAT_ID":69404,"ELEMENT_SET_NO":999,"REV_AT_EPOCH":580,"BSTAR":0.000028629917,"MEAN_MOTION_DOT":5.1e-7,"MEAN_MOTION_DDOT":0},{"OBJECT_NAME":"QIANFAN-187","OBJECT_ID":"2026-125E","EPOCH":"2026-07-16T00:01:50.380320","CLASSIFICATION_TYPE":"U","MEAN_MOTION":13.93094151,"ECCENTRICITY":0.00220083,"INCLINATION":88.9934,"RA_OF_ASC_NODE":277.1984,"ARG_OF_PERICENTER":78.4644,"MEAN_ANOMALY":281.9,"EPHEMERIS_TYPE":0,"NORAD_CAT_ID":69405,"ELEMENT_SET_NO":999,"REV_AT_EPOCH":577,"BSTAR":-1.684214,"MEAN_MOTION_DOT":-0.02041199,"MEAN_MOTION_DDOT":0},{"OBJECT_NAME":"QIANFAN-188","OBJECT_ID":"2026-125F","EPOCH":"2026-07-15T23:18:33.846912","CLASSIFICATION_TYPE":"U","MEAN_MOTION":13.94146993,"ECCENTRICITY":0.00220742,"INCLINATION":88.994,"RA_OF_ASC_NODE":277.1955,"ARG_OF_PERICENTER":83.738,"MEAN_ANOMALY":276.6309,"EPHEMERIS_TYPE":0,"NORAD_CAT_ID":69406,"ELEMENT_SET_NO":999,"REV_AT_EPOCH":577,"BSTAR":-1.5483812,"MEAN_MOTION_DOT":-0.01919549,"MEAN_MOTION_DDOT":0},{"OBJECT_NAME":"QIANFAN-189","OBJECT_ID":"2026-125G","EPOCH":"2026-07-15T23:42:26.030592","CLASSIFICATION_TYPE":"U","MEAN_MOTION":13.95733442,"ECCENTRICITY":0.00253427,"INCLINATION":88.9937,"RA_OF_ASC_NODE":277.1963,"ARG_OF_PERICENTER":72.9112,"MEAN_ANOMALY":287.4837,"EPHEMERIS_TYPE":0,"NORAD_CAT_ID":69407,"ELEMENT_SET_NO":999,"REV_AT_EPOCH":576,"BSTAR":-1.6952385,"MEAN_MOTION_DOT":-0.0214474,"MEAN_MOTION_DDOT":0},{"OBJECT_NAME":"QIANFAN-190","OBJECT_ID":"2026-125H","EPOCH":"2026-07-15T23:34:32.533536","CLASSIFICATION_TYPE":"U","MEAN_MOTION":13.94222012,"ECCENTRICITY":0.00205962,"INCLINATION":88.9943,"RA_OF_ASC_NODE":277.1985,"ARG_OF_PERICENTER":72.3436,"MEAN_ANOMALY":287.9986,"EPHEMERIS_TYPE":0,"NORAD_CAT_ID":69408,"ELEMENT_SET_NO":999,"REV_AT_EPOCH":577,"BSTAR":-1.5748147,"MEAN_MOTION_DOT":-0.01952105,"MEAN_MOTION_DDOT":0},{"OBJECT_NAME":"QIANFAN-191","OBJECT_ID":"2026-125J","EPOCH":"2026-07-16T00:50:00.084480","CLASSIFICATION_TYPE":"U","MEAN_MOTION":13.9349221,"ECCENTRICITY":0.0019566,"INCLINATION":88.9946,"RA_OF_ASC_NODE":277.1867,"ARG_OF_PERICENTER":76.1225,"MEAN_ANOMALY":284.2125,"EPHEMERIS_TYPE":0,"NORAD_CAT_ID":69409,"ELEMENT_SET_NO":999,"REV_AT_EPOCH":578,"BSTAR":-1.6060043,"MEAN_MOTION_DOT":-0.0196444,"MEAN_MOTION_DDOT":0},{"OBJECT_NAME":"QIANFAN-192","OBJECT_ID":"2026-125K","EPOCH":"2026-07-16T00:32:34.606464","CLASSIFICATION_TYPE":"U","MEAN_MOTION":13.93888627,"ECCENTRICITY":0.00238297,"INCLINATION":88.9939,"RA_OF_ASC_NODE":277.1838,"ARG_OF_PERICENTER":77.1766,"MEAN_ANOMALY":283.207,"EPHEMERIS_TYPE":0,"NORAD_CAT_ID":69410,"ELEMENT_SET_NO":999,"REV_AT_EPOCH":578,"BSTAR":-1.7064599,"MEAN_MOTION_DOT":-0.02093733,"MEAN_MOTION_DDOT":0}]}
