QIANFAN-177             
1 69394U 26124N   26197.27801257  .00000009  00000+0 -33973-5 0  9992
2 69394  88.9997 358.7468 0008088  61.6879 298.5113 13.96595357  5934
QIANFAN-178             
1 69395U 26124P   26197.19909937 -.00000019  00000+0 -22392-4 0  9992
2 69395  88.9993 358.7532 0006931  68.3799 291.8118 13.99716163  5926
QIANFAN-179             
1 69396U 26124Q   26197.25610937  .00000018  00000+0  30024-5 0  9998
2 69396  88.9998 358.7441 0006672  66.5052 293.6827 13.98797878  5934
QIANFAN-180             
1 69397U 26124R   26197.25998330  .00000014  00000+0  53121-6 0  9995
2 69397  88.9999 358.7443 0007049  64.8409 295.3499 13.97121189  5933
QIANFAN-181             
1 69398U 26124S   26197.22498762  .00000021  00000+0  66485-5 0  9991
2 69398  89.0001 358.7945 0005720  54.1029 306.0673 13.88015574  5902
QIANFAN-182             
1 69399U 26124T   26197.16928288  .00000022  00000+0  71160-5 0  9993
2 69399  88.9993 358.7870 0007236  67.8975 292.2966 13.90165092  5896
QIANFAN-183             
1 69401U 26125A   26196.90461288 -.02040286  00000+0 -16802+1 0  9998
2 69401  88.9936 277.2224 0019656  84.2218 276.1198 13.93228802  5752
QIANFAN-184             
1 69402U 26125B   26197.03882712 -.01999442  00000+0 -17177+1 0  9995
2 69402  88.9945 277.2067 0015767  87.5099 272.7879 13.90731966  5777
QIANFAN-185             
1 69403U 26125C   26197.17266546  .00000016  00000+0  14788-5 0  9999
2 69403  88.9947 277.1889 0018187  79.4943 280.8286 14.04121446  5794
QIANFAN-186             
1 69404U 26125D   26197.24153760  .00000051  00000+0  28630-4 0  9990
2 69404  88.9952 277.1788 0019986  80.2503 280.0928 13.92938099  5802
QIANFAN-187             
1 69405U 26125E   26197.00127755 -.02041199  00000+0 -16842+1 0  9990
2 69405  88.9934 277.1984 0022008  78.4644 281.9000 13.93094151  5775
QIANFAN-188             
1 69406U 26125F   26196.97122508 -.01919549  00000+0 -15484+1 0  9990
2 69406  88.9940 277.1955 0022074  83.7380 276.6309 13.94146993  5776
QIANFAN-189             
1 69407U 26125G   26196.98780128 -.02144740  00000+0 -16952+1 0  9995
2 69407  88.9937 277.1963 0025342  72.9112 287.4837 13.95733442  5763
QIANFAN-190             
1 69408U 26125H   26196.98232099 -.01952105  00000+0 -15748+1 0  9998
2 69408  88.9943 277.1985 0020596  72.3436 287.9986 13.94222012  5770
QIANFAN-191             
1 69409U 26125J   26197.03472320 -.01964440  00000+0 -16060+1 0  9992
2 69409  88.9946 277.1867 0019566  76.1225 284.2125 13.93492210  5780
QIANFAN-192             
1 69410U 26125K   26197.02262276 -.02093733  00000+0 -17065+1 0  9995
2 69410  88.9939 277.1838 0023829  77.1766 283.2070 13.93888627  5789
